{
  "type": "FeatureCollection",
  "features": [
    {
      "type": "Feature",
      "properties": {
        "norad_id": 66931,
        "name": "STARLINK-36130",
        "group": "last-30-days",
        "lat": 19.15995944471048,
        "lon": 53.43562833917816,
        "alt_km": 294.37277722554154,
        "timestamp": "2025-12-15T04:01:19.182478+00:00",
        "meta_object_name": "STARLINK-36130",
        "meta_object_id": "2025-286G",
        "meta_epoch": "2025-12-14T06:00:02.999808",
        "meta_mean_motion": 15.94255449,
        "meta_eccentricity": 9.978e-05,
        "meta_inclination": 53.1576,
        "meta_ra_of_asc_node": 43.018,
        "meta_arg_of_pericenter": 77.5823,
        "meta_mean_anomaly": 81.2687,
        "meta_ephemeris_type": 0,
        "meta_classification_type": "U",
        "meta_norad_cat_id": 66931,
        "meta_element_set_no": 999,
        "meta_rev_at_epoch": 223,
        "meta_bstar": -0.0033539757,
        "meta_mean_motion_dot": -0.01280946,
        "meta_mean_motion_ddot": 0.00049049873,
        "tle_line1": "1 66931U 25286G   25348.25003472 -.01280946  49050-3 -33540-2 0  9993",
        "tle_line2": "2 66931  53.1576  43.0180 0000997  77.5823  81.2687 15.94255449  2234"
      },
      "geometry": {
        "type": "Point",
        "coordinates": [
          53.43562833917816,
          19.15995944471048
        ]
      }
    },
    {
      "type": "Feature",
      "properties": {
        "norad_id": 66932,
        "name": "STARLINK-36177",
        "group": "last-30-days",
        "lat": 20.60033572563124,
        "lon": 54.70061808535119,
        "alt_km": 293.9528506982688,
        "timestamp": "2025-12-15T04:01:19.182488+00:00",
        "meta_object_name": "STARLINK-36177",
        "meta_object_id": "2025-286H",
        "meta_epoch": "2025-12-14T06:00:02.999808",
        "meta_mean_motion": 15.94330571,
        "meta_eccentricity": 0.00010163,
        "meta_inclination": 53.1576,
        "meta_ra_of_asc_node": 43.0146,
        "meta_arg_of_pericenter": 77.5463,
        "meta_mean_anomaly": 82.9325,
        "meta_ephemeris_type": 0,
        "meta_classification_type": "U",
        "meta_norad_cat_id": 66932,
        "meta_element_set_no": 999,
        "meta_rev_at_epoch": 223,
        "meta_bstar": -0.0033472707,
        "meta_mean_motion_dot": -0.01283488,
        "meta_mean_motion_ddot": 0.00049264222,
        "tle_line1": "1 66932U 25286H   25348.25003472 -.01283488  49264-3 -33473-2 0  9990",
        "tle_line2": "2 66932  53.1576  43.0146 0001016  77.5463  82.9325 15.94330571  2237"
      },
      "geometry": {
        "type": "Point",
        "coordinates": [
          54.70061808535119,
          20.60033572563124
        ]
      }
    },
    {
      "type": "Feature",
      "properties": {
        "norad_id": 66933,
        "name": "STARLINK-36157",
        "group": "last-30-days",
        "lat": 21.994360050447618,
        "lon": 55.956095073871246,
        "alt_km": 293.5711030725306,
        "timestamp": "2025-12-15T04:01:19.182498+00:00",
        "meta_object_name": "STARLINK-36157",
        "meta_object_id": "2025-286J",
        "meta_epoch": "2025-12-14T06:00:02.999808",
        "meta_mean_motion": 15.94407989,
        "meta_eccentricity": 9.302e-05,
        "meta_inclination": 53.1576,
        "meta_ra_of_asc_node": 43.0113,
        "meta_arg_of_pericenter": 78.7818,
        "meta_mean_anomaly": 83.298,
        "meta_ephemeris_type": 0,
        "meta_classification_type": "U",
        "meta_norad_cat_id": 66933,
        "meta_element_set_no": 999,
        "meta_rev_at_epoch": 223,
        "meta_bstar": -0.0033687332,
        "meta_mean_motion_dot": -0.01296892,
        "meta_mean_motion_ddot": 0.00050244012,
        "tle_line1": "1 66933U 25286J   25348.25003472 -.01296892  50244-3 -33687-2 0  9991",
        "tle_line2": "2 66933  53.1576  43.0113 0000930  78.7818  83.2980 15.94407989  2232"
      },
      "geometry": {
        "type": "Point",
        "coordinates": [
          55.956095073871246,
          21.994360050447618
        ]
      }
    },
    {
      "type": "Feature",
      "properties": {
        "norad_id": 66934,
        "name": "STARLINK-36153",
        "group": "last-30-days",
        "lat": 23.393966999763883,
        "lon": 57.2506477461386,
        "alt_km": 293.1437319812985,
        "timestamp": "2025-12-15T04:01:19.182530+00:00",
        "meta_object_name": "STARLINK-36153",
        "meta_object_id": "2025-286K",
        "meta_epoch": "2025-12-14T06:00:02.999808",
        "meta_mean_motion": 15.94481185,
        "meta_eccentricity": 9.583e-05,
        "meta_inclination": 53.1576,
        "meta_ra_of_asc_node": 43.0077,
        "meta_arg_of_pericenter": 78.2208,
        "meta_mean_anomaly": 85.4795,
        "meta_ephemeris_type": 0,
        "meta_classification_type": "U",
        "meta_norad_cat_id": 66934,
        "meta_element_set_no": 999,
        "meta_rev_at_epoch": 223,
        "meta_bstar": -0.0033758797,
        "meta_mean_motion_dot": -0.01304644,
        "meta_mean_motion_ddot": 0.00050829604,
        "tle_line1": "1 66934U 25286K   25348.25003472 -.01304644  50830-3 -33759-2 0  9998",
        "tle_line2": "2 66934  53.1576  43.0077 0000958  78.2208  85.4795 15.94481185  2238"
      },
      "geometry": {
        "type": "Point",
        "coordinates": [
          57.2506477461386,
          23.393966999763883
        ]
      }
    },
    {
      "type": "Feature",
      "properties": {
        "norad_id": 66935,
        "name": "STARLINK-36127",
        "group": "last-30-days",
        "lat": 24.988984764564673,
        "lon": 58.77322853126898,
        "alt_km": 292.6713123679092,
        "timestamp": "2025-12-15T04:01:19.182545+00:00",
        "meta_object_name": "STARLINK-36127",
        "meta_object_id": "2025-286L",
        "meta_epoch": "2025-12-14T06:00:02.999808",
        "meta_mean_motion": 15.94564907,
        "meta_eccentricity": 9.11e-05,
        "meta_inclination": 53.1575,
        "meta_ra_of_asc_node": 43.004,
        "meta_arg_of_pericenter": 80.5967,
        "meta_mean_anomaly": 84.9399,
        "meta_ephemeris_type": 0,
        "meta_classification_type": "U",
        "meta_norad_cat_id": 66935,
        "meta_element_set_no": 999,
        "meta_rev_at_epoch": 223,
        "meta_bstar": -0.003359361,
        "meta_mean_motion_dot": -0.01304084,
        "meta_mean_motion_ddot": 0.00050832445,
        "tle_line1": "1 66935U 25286L   25348.25003472 -.01304084  50832-3 -33594-2 0  9996",
        "tle_line2": "2 66935  53.1575  43.0040 0000911  80.5967  84.9399 15.94564907  2233"
      },
      "geometry": {
        "type": "Point",
        "coordinates": [
          58.77322853126898,
          24.988984764564673
        ]
      }
    },
    {
      "type": "Feature",
      "properties": {
        "norad_id": 66936,
        "name": "STARLINK-36160",
        "group": "last-30-days",
        "lat": 26.2692438460956,
        "lon": 60.035660506929915,
        "alt_km": 292.33949235732143,
        "timestamp": "2025-12-15T04:01:19.182555+00:00",
        "meta_object_name": "STARLINK-36160",
        "meta_object_id": "2025-286M",
        "meta_epoch": "2025-12-14T06:00:02.999808",
        "meta_mean_motion": 15.94638452,
        "meta_eccentricity": 9.033e-05,
        "meta_inclination": 53.1575,
        "meta_ra_of_asc_node": 43.0011,
        "meta_arg_of_pericenter": 85.1106,
        "meta_mean_anomaly": 81.93,
        "meta_ephemeris_type": 0,
        "meta_classification_type": "U",
        "meta_norad_cat_id": 66936,
        "meta_element_set_no": 999,
        "meta_rev_at_epoch": 223,
        "meta_bstar": -0.0033772167,
        "meta_mean_motion_dot": -0.01316038,
        "meta_mean_motion_ddot": 0.00051722748,
        "tle_line1": "1 66936U 25286M   25348.25003472 -.01316038  51723-3 -33772-2 0  9997",
        "tle_line2": "2 66936  53.1575  43.0011 0000903  85.1106  81.9300 15.94638452  2235"
      },
      "geometry": {
        "type": "Point",
        "coordinates": [
          60.035660506929915,
          26.2692438460956
        ]
      }
    },
    {
      "type": "Feature",
      "properties": {
        "norad_id": 66937,
        "name": "STARLINK-36165",
        "group": "last-30-days",
        "lat": 27.579689901325636,
        "lon": 61.36868121356382,
        "alt_km": 291.78627176000464,
        "timestamp": "2025-12-15T04:01:19.182567+00:00",
        "meta_object_name": "STARLINK-36165",
        "meta_object_id": "2025-286N",
        "meta_epoch": "2025-12-14T06:00:02.999808",
        "meta_mean_motion": 15.9470609,
        "meta_eccentricity": 0.00010066,
        "meta_inclination": 53.1574,
        "meta_ra_of_asc_node": 42.9976,
        "meta_arg_of_pericenter": 71.9434,
        "meta_mean_anomaly": 96.6363,
        "meta_ephemeris_type": 0,
        "meta_classification_type": "U",
        "meta_norad_cat_id": 66937,
        "meta_element_set_no": 999,
        "meta_rev_at_epoch": 223,
        "meta_bstar": -0.003359108,
        "meta_mean_motion_dot": -0.01313772,
        "meta_mean_motion_ddot": 0.00051595679,
        "tle_line1": "1 66937U 25286N   25348.25003472 -.01313772  51596-3 -33591-2 0  9997",
        "tle_line2": "2 66937  53.1574  42.9976 0001006  71.9434  96.6363 15.94706090  2231"
      },
      "geometry": {
        "type": "Point",
        "coordinates": [
          61.36868121356382,
          27.579689901325636
        ]
      }
    }
  ]
}